start=new Date('2021-11-07T00:00:00.000Z').valueOf();
sats=[{"ARG_OF_PERICENTER":"95.8562","CLASSIFICATION_TYPE":"U","EPOCH":"2021-11-06T17:39:21.231360","TIME_SYSTEM":"UTC","SITE":"AFETR","APOAPSIS":"548.363","ECCENTRICITY":"0.00016000","TLE_LINE1":"1 48487U 21040BM  21310.73566240 -.00002232  00000-0 -13101-3 0  9998","OBJECT_ID":"2021-040BM","MEAN_MOTION_DDOT":"0.0000000000000","REF_FRAME":"TEME","DECAY_DATE":null,"LAUNCH_DATE":"2021-05-09","PERIOD":"95.593","MEAN_ANOMALY":"264.2610","NORAD_CAT_ID":"48487","RCS_SIZE":"LARGE","GP_ID":"189104493","INCLINATION":"53.0561","OBJECT_TYPE":"PAYLOAD","MEAN_MOTION":"15.06386421","FILE":"3205937","REV_AT_EPOCH":"2889","COUNTRY_CODE":"US","MEAN_ELEMENT_THEORY":"SGP4","PERIAPSIS":"546.147","EPHEMERIS_TYPE":"0","RA_OF_ASC_NODE":"112.2651","TLE_LINE2":"2 48487  53.0561 112.2651 0001600  95.8562 264.2610 15.06386421 28897","MEAN_MOTION_DOT":"-0.00002232","CENTER_NAME":"EARTH","BSTAR":"-0.00013101000000","ELEMENT_SET_NO":"999","SEMIMAJOR_AXIS":"6925.390","OBJECT_NAME":"STARLINK-2494"},{"ARG_OF_PERICENTER":"67.7579","CLASSIFICATION_TYPE":"U","SITE":"AFETR","TIME_SYSTEM":"UTC","EPOCH":"2021-11-06T15:30:36.840672","TLE_LINE1":"1 48553U 21041A   21310.64625973  .00002155  00000-0  16353-3 0  9996","ECCENTRICITY":"0.00013580","APOAPSIS":"548.142","OBJECT_ID":"2021-041A","MEAN_MOTION_DDOT":"0.0000000000000","MEAN_ANOMALY":"292.3554","DECAY_DATE":null,"REF_FRAME":"TEME","LAUNCH_DATE":"2021-05-15","PERIOD":"95.592","GP_ID":"189099005","RCS_SIZE":"LARGE","NORAD_CAT_ID":"48553","OBJECT_TYPE":"PAYLOAD","INCLINATION":"53.0584","MEAN_MOTION":"15.06404027","PERIAPSIS":"546.261","MEAN_ELEMENT_THEORY":"SGP4","COUNTRY_CODE":"US","REV_AT_EPOCH":"2690","FILE":"3205726","CENTER_NAME":"EARTH","MEAN_MOTION_DOT":"0.00002155","TLE_LINE2":"2 48553  53.0584  42.6663 0001358  67.7579 292.3554 15.06404027 26903","RA_OF_ASC_NODE":"42.6663","EPHEMERIS_TYPE":"0","BSTAR":"0.00016353000000","OBJECT_NAME":"STARLINK-2063","SEMIMAJOR_AXIS":"6925.336","ELEMENT_SET_NO":"999"},{"BSTAR":"-0.00036244000000","ELEMENT_SET_NO":"999","SEMIMAJOR_AXIS":"6925.521","OBJECT_NAME":"STARLINK-2139","FILE":"3205871","COUNTRY_CODE":"US","REV_AT_EPOCH":"2686","MEAN_ELEMENT_THEORY":"SGP4","PERIAPSIS":"546.367","EPHEMERIS_TYPE":"0","RA_OF_ASC_NODE":"42.3411","TLE_LINE2":"2 48554  53.0578  42.3411 0001472  65.2423 294.8719 15.06343587 26861","MEAN_MOTION_DOT":"-0.00005667","CENTER_NAME":"EARTH","INCLINATION":"53.0578","OBJECT_TYPE":"PAYLOAD","MEAN_MOTION":"15.06343587","NORAD_CAT_ID":"48554","RCS_SIZE":"LARGE","GP_ID":"189103388","REF_FRAME":"TEME","DECAY_DATE":null,"LAUNCH_DATE":"2021-05-15","PERIOD":"95.596","MEAN_ANOMALY":"294.8719","OBJECT_ID":"2021-041B","MEAN_MOTION_DDOT":"0.0000000000000","EPOCH":"2021-11-06T17:16:50.589408","TIME_SYSTEM":"UTC","SITE":"AFETR","APOAPSIS":"548.406","ECCENTRICITY":"0.00014720","TLE_LINE1":"1 48554U 21041B   21310.72002997 -.00005667  00000-0 -36244-3 0  9995","CLASSIFICATION_TYPE":"U","ARG_OF_PERICENTER":"65.2423"},{"MEAN_MOTION_DOT":"-0.00018449","TLE_LINE2":"2 48555  53.0561  52.2046 0001300  79.7366 280.3769 15.06348577 26773","CENTER_NAME":"EARTH","EPHEMERIS_TYPE":"0","RA_OF_ASC_NODE":"52.2046","MEAN_ELEMENT_THEORY":"SGP4","PERIAPSIS":"546.471","FILE":"3205873","COUNTRY_CODE":"US","REV_AT_EPOCH":"2677","SEMIMAJOR_AXIS":"6925.506","ELEMENT_SET_NO":"999","OBJECT_NAME":"STARLINK-2145","BSTAR":"-0.00122460000000","GP_ID":"189103423","NORAD_CAT_ID":"48555","RCS_SIZE":"LARGE","MEAN_MOTION":"15.06348577","OBJECT_TYPE":"PAYLOAD","INCLINATION":"53.0561","MEAN_MOTION_DDOT":"0.0000000000000","OBJECT_ID":"2021-041C","DECAY_DATE":null,"PERIOD":"95.595","LAUNCH_DATE":"2021-05-15","REF_FRAME":"TEME","MEAN_ANOMALY":"280.3769","ARG_OF_PERICENTER":"79.7366","CLASSIFICATION_TYPE":"U","ECCENTRICITY":"0.00013000","TLE_LINE1":"1 48555U 21041C   21310.74856005 -.00018449  00000-0 -12246-2 0  9992","APOAPSIS":"548.271","SITE":"AFETR","EPOCH":"2021-11-06T17:57:55.588320","TIME_SYSTEM":"UTC"},{"TIME_SYSTEM":"UTC","EPOCH":"2021-11-06T16:06:27.715968","SITE":"AFETR","APOAPSIS":"548.554","TLE_LINE1":"1 48556U 21041D   21310.67115412 -.00018711  00000-0 -12420-2 0  9991","ECCENTRICITY":"0.00017370","CLASSIFICATION_TYPE":"U","ARG_OF_PERICENTER":"74.8580","MEAN_ANOMALY":"285.2601","DECAY_DATE":null,"LAUNCH_DATE":"2021-05-15","REF_FRAME":"TEME","PERIOD":"95.595","OBJECT_ID":"2021-041D","MEAN_MOTION_DDOT":"0.0000000000000","INCLINATION":"53.0603","OBJECT_TYPE":"PAYLOAD","MEAN_MOTION":"15.06355253","RCS_SIZE":"LARGE","NORAD_CAT_ID":"48556","GP_ID":"189103427","BSTAR":"-0.00124200000000","OBJECT_NAME":"STARLINK-2151","SEMIMAJOR_AXIS":"6925.486","ELEMENT_SET_NO":"999","REV_AT_EPOCH":"2676","COUNTRY_CODE":"US","FILE":"3205873","PERIAPSIS":"546.148","MEAN_ELEMENT_THEORY":"SGP4","RA_OF_ASC_NODE":"52.5429","EPHEMERIS_TYPE":"0","CENTER_NAME":"EARTH","TLE_LINE2":"2 48556  53.0603  52.5429 0001737  74.8580 285.2601 15.06355253 26764","MEAN_MOTION_DOT":"-0.00018711"},{"MEAN_MOTION_DDOT":"0.0000000000000","OBJECT_ID":"2021-041E","DECAY_DATE":null,"PERIOD":"95.593","LAUNCH_DATE":"2021-05-15","REF_FRAME":"TEME","MEAN_ANOMALY":"284.2420","ARG_OF_PERICENTER":"75.8694","CLASSIFICATION_TYPE":"U","ECCENTRICITY":"0.00011260","TLE_LINE1":"1 48557U 21041E   21310.74211047 -.00006044  00000-0 -38744-3 0  9995","APOAPSIS":"548.058","SITE":"AFETR","TIME_SYSTEM":"UTC","EPOCH":"2021-11-06T17:48:38.344608","TLE_LINE2":"2 48557  53.0566  42.2440 0001126  75.8694 284.2420 15.06378836 26918","MEAN_MOTION_DOT":"-0.00006044","CENTER_NAME":"EARTH","RA_OF_ASC_NODE":"42.2440","EPHEMERIS_TYPE":"0","MEAN_ELEMENT_THEORY":"SGP4","PERIAPSIS":"546.499","FILE":"3205888","COUNTRY_CODE":"US","REV_AT_EPOCH":"2691","SEMIMAJOR_AXIS":"6925.413","ELEMENT_SET_NO":"999","OBJECT_NAME":"STARLINK-2155","BSTAR":"-0.00038744000000","GP_ID":"189103478","NORAD_CAT_ID":"48557","RCS_SIZE":"LARGE","MEAN_MOTION":"15.06378836","OBJECT_TYPE":"PAYLOAD","INCLINATION":"53.0566"},{"RCS_SIZE":"LARGE","NORAD_CAT_ID":"48558","GP_ID":"189103588","MEAN_MOTION":"15.06348353","INCLINATION":"53.0570","OBJECT_TYPE":"PAYLOAD","EPHEMERIS_TYPE":"0","RA_OF_ASC_NODE":"42.2575","CENTER_NAME":"EARTH","TLE_LINE2":"2 48558  53.0570  42.2575 0001359  77.9252 282.1889 15.06348353 26865","MEAN_MOTION_DOT":"-0.00016275","REV_AT_EPOCH":"2686","COUNTRY_CODE":"US","FILE":"3205911","PERIAPSIS":"546.431","MEAN_ELEMENT_THEORY":"SGP4","OBJECT_NAME":"STARLINK-2166","SEMIMAJOR_AXIS":"6925.507","ELEMENT_SET_NO":"999","BSTAR":"-0.00107770000000","ARG_OF_PERICENTER":"77.9252","CLASSIFICATION_TYPE":"U","APOAPSIS":"548.313","TLE_LINE1":"1 48558U 21041F   21310.73842651 -.00016275  00000-0 -10777-2 0  9998","ECCENTRICITY":"0.00013590","TIME_SYSTEM":"UTC","EPOCH":"2021-11-06T17:43:20.050464","SITE":"AFETR","MEAN_MOTION_DDOT":"0.0000000000000","OBJECT_ID":"2021-041F","MEAN_ANOMALY":"282.1889","LAUNCH_DATE":"2021-05-15","DECAY_DATE":null,"PERIOD":"95.595","REF_FRAME":"TEME"},{"GP_ID":"189103586","RCS_SIZE":"LARGE","NORAD_CAT_ID":"48559","OBJECT_TYPE":"PAYLOAD","INCLINATION":"53.0533","MEAN_MOTION":"15.06366949","PERIAPSIS":"546.497","MEAN_ELEMENT_THEORY":"SGP4","COUNTRY_CODE":"US","REV_AT_EPOCH":"2691","FILE":"3205911","CENTER_NAME":"EARTH","TLE_LINE2":"2 48559  53.0533  42.0955 0001181  82.9430 277.1693 15.06366949 26916","MEAN_MOTION_DOT":"-0.00009022","RA_OF_ASC_NODE":"42.0955","EPHEMERIS_TYPE":"0","BSTAR":"-0.00058808000000","OBJECT_NAME":"STARLINK-2167","SEMIMAJOR_AXIS":"6925.450","ELEMENT_SET_NO":"999","ARG_OF_PERICENTER":"82.9430","CLASSIFICATION_TYPE":"U","SITE":"AFETR","EPOCH":"2021-11-06T18:35:03.218784","TIME_SYSTEM":"UTC","TLE_LINE1":"1 48559U 21041G   21310.77434281 -.00009022  00000-0 -58808-3 0  9999","ECCENTRICITY":"0.00011810","APOAPSIS":"548.133","OBJECT_ID":"2021-041G","MEAN_MOTION_DDOT":"0.0000000000000","MEAN_ANOMALY":"277.1693","DECAY_DATE":null,"PERIOD":"95.594","LAUNCH_DATE":"2021-05-15","REF_FRAME":"TEME"},{"MEAN_MOTION_DDOT":"0.0000000000000","OBJECT_ID":"2021-041H","LAUNCH_DATE":"2021-05-15","DECAY_DATE":null,"REF_FRAME":"TEME","PERIOD":"95.266","MEAN_ANOMALY":"297.2212","CLASSIFICATION_TYPE":"U","ARG_OF_PERICENTER":"62.8864","APOAPSIS":"532.020","ECCENTRICITY":"0.00008270","TLE_LINE1":"1 48560U 21041H   21310.76991713  .00139960  00000-0  80166-2 0  9992","EPOCH":"2021-11-06T18:28:40.840032","TIME_SYSTEM":"UTC","SITE":"AFETR","EPHEMERIS_TYPE":"0","RA_OF_ASC_NODE":"42.0558","TLE_LINE2":"2 48560  53.0516  42.0558 0000827  62.8864 297.2212 15.11558372 26900","MEAN_MOTION_DOT":"0.00139960","CENTER_NAME":"EARTH","FILE":"3205911","REV_AT_EPOCH":"2690","COUNTRY_CODE":"US","MEAN_ELEMENT_THEORY":"SGP4","PERIAPSIS":"530.877","ELEMENT_SET_NO":"999","SEMIMAJOR_AXIS":"6909.584","OBJECT_NAME":"STARLINK-2173","BSTAR":"0.00801660000000","NORAD_CAT_ID":"48560","RCS_SIZE":"LARGE","GP_ID":"189103592","MEAN_MOTION":"15.11558372","INCLINATION":"53.0516","OBJECT_TYPE":"PAYLOAD"},{"ARG_OF_PERICENTER":"40.2656","CLASSIFICATION_TYPE":"U","APOAPSIS":"548.580","TLE_LINE1":"1 48561U 21041J   21310.66667824 -.00004081  00000-0 -25522-3 0  9998","ECCENTRICITY":"0.00019670","EPOCH":"2021-11-06T16:00:00.999936","TIME_SYSTEM":"UTC","SITE":"AFETR","MEAN_MOTION_DDOT":"0.0000000000000","OBJECT_ID":"2021-041J","MEAN_ANOMALY":"160.7353","DECAY_DATE":null,"LAUNCH_DATE":"2021-05-15","PERIOD":"95.592","REF_FRAME":"TEME","NORAD_CAT_ID":"48561","RCS_SIZE":"LARGE","GP_ID":"189132338","MEAN_MOTION":"15.06398631","INCLINATION":"53.0573","OBJECT_TYPE":"PAYLOAD","EPHEMERIS_TYPE":"0","RA_OF_ASC_NODE":"12.5668","CENTER_NAME":"EARTH","TLE_LINE2":"2 48561  53.0573  12.5668 0001967  40.2656 160.7353 15.06398631  3621","MEAN_MOTION_DOT":"-0.00004081","REV_AT_EPOCH":"362","COUNTRY_CODE":"US","FILE":"3206165","PERIAPSIS":"545.856","MEAN_ELEMENT_THEORY":"SGP4","OBJECT_NAME":"STARLINK-2186","ELEMENT_SET_NO":"999","SEMIMAJOR_AXIS":"6925.353","BSTAR":"-0.00025522000000"}];
